{"type":"Feature","properties":{"MUN":"SOUTH AMBOY CITY","COUNTY":"MIDDLESEX","MUN_LABEL":"South Amboy City","MUN_TYPE":"City","NAME":"South Amboy","GNIS_NAME":"City of South Amboy"},"geometry":{"type":"Polygon","coordinates":[[[-74.2679439,40.4936569],[-74.2704574,40.4849538],[-74.2704252,40.484878],[-74.2702923,40.4845302],[-74.2701902,40.4842631],[-74.2701366,40.484131],[-74.2700312,40.4839221],[-74.2698499,40.483583],[-74.2697754,40.4834518],[-74.2696257,40.4831691],[-74.2694294,40.4827785],[-74.2692128,40.4823694],[-74.2688225,40.4816329],[-74.2686666,40.481321],[-74.2684906,40.4809246],[-74.2682982,40.4805146],[-74.2681654,40.4802243],[-74.2814958,40.4741707],[-74.281399,40.4739831],[-74.2812958,40.4738347],[-74.2801173,40.4723924],[-74.2800746,40.472329],[-74.2801731,40.4722861],[-74.2866177,40.4702429],[-74.2978942,40.481609],[-74.2936248,40.4908672],[-74.2916924,40.4950568],[-74.2919005,40.4951119],[-74.2912897,40.4964566],[-74.2876504,40.4985112],[-74.2873783,40.4981899],[-74.2863494,40.4974007],[-74.2850621,40.4967685],[-74.2832072,40.4962925],[-74.2804655,40.4959567],[-74.2743926,40.4952128],[-74.2719929,40.4947965],[-74.2718673,40.4947747],[-74.2703476,40.4942993],[-74.2679439,40.4936569]]]}}
